C/2020 Q1 (Borisov),e,142.9379,52.4011,10.0169,62.14850,0.0020117,0.97876624,0.0000,08/15.0406/2020,2000,g 14.0,4.0
# From MPEC 2023-CD7
C/2020 Q2 (PANSTARRS),e,3.3354,179.8202,118.2558,10.60944,0.0285211,0.48916839,51.9706,01/21.0/2025,2000,g 12.0,3.2
# From MPEC 2024-F34
C/2020 R2 (PANSTARRS),e,53.2214,195.1154,211.8753,432.2678,0.0001097,0.98913202,0.0000,02/25.3917/2022,2000,g  9.0,4.0
# From MPEC 2022-K19
C/2020 R4 (ATLAS),e,164.4131,323.2428,46.5462,98.02885,0.0010155,0.98957838,0.0000,03/02.3656/2021,2000,g 13.5,4.0
# From MPEC 2023-C45
P/2020 R5 (PANSTARRS),e,11.4395,272.9395,82.7653,4.992458,0.0883553,0.31339502,150.0915,01/21.0/2025,2000,g  9.5,6.0
# From MPEC 2021-Y10
C/2020 R6 (Rankin),e,82.8667,12.2159,272.0030,293.3889,0.0001961,0.98930024,0.0000,09/07.0276/2019,2000,g 11.0,4.0
# From MPEC 2024-PC5
C/2020 R7 (ATLAS),e,114.9031,268.3098,347.7889,22241,0.0000003,0.99986722,0.0000,09/16.1183/2022,2000,g  7.0,3.2
# From MPEC 2021-BE3
P/2020 S1 (PANSTARRS),e,13.7166,129.4979,255.1374,6.000824,0.0670483,0.50713699,98.2043,01/21.0/2025,2000,g 14.0,4.0
# From MPEC 2022-ST7
C/2020 S2 (PANSTARRS),e,22.3858,197.7047,202.4048,10.24781,0.0300440,0.82806828,44.7883,01/21.0/2025,2000,g 17.0,4.0
# From MPEC 2024-JU4
C/2020 S3 (Erasmus),e,20.0434,222.5547,350.0455,142.3714,0.0005802,0.99723433,0.0000,12/11.3871/2020,2000,g 13.5,3.2
# From MPEC 2024-N80
C/2020 S4 (PANSTARRS),h,02/09.4550/2023,20.5690,117.6887,21.0371,1.002472,3.369898,2000,8.5,3.2
# From MPEC 2021-BE3
P/2020 S5 (PANSTARRS),e,12.3410,316.0293,53.2779,4.057660,0.1205843,0.33759123,196.1254,01/21.0/2025,2000,g 14.5,4.0
# From MPEC 2021-BE3
P/2020 S7 (PANSTARRS),e,16.0732,328.0872,40.6558,5.035935,0.0872135,0.40978443,132.9907,01/21.0/2025,2000,g 14.5,4.0
# From MPEC 2021-P47
C/2020 S8 (Lemmon),e,108.5360,24.0321,160.1514,242.3689,0.0002612,0.99027838,0.0000,04/10.5008/2021,2000,g 12.5,4.0
# From MPEC 2022-TD3
C/2020 T2 (Palomar),e,27.8381,83.0499,150.3678,274.1992,0.0002171,0.99250685,0.0000,07/10.5493/2021,2000,g 11.0,3.2
# From MPEC 2021-N06
P/2020 T3 (PANSTARRS),e,7.2992,73.9931,357.0702,3.516224,0.1494821,0.59248048,218.2444,01/21.0/2025,2000,g 18.0,3.2
# From MPEC 2021-N06
C/2020 T4 (PANSTARRS),h,07/05.9100/2021,83.8439,50.6156,79.5753,1.000577,2.188449,2000,13.0,3.2
# From MPEC 2021-BE3
C/2020 T5 (Lemmon),e,66.5468,237.8310,90.3826,629.1627,0.0000625,0.99698531,0.0000,10/08.1094/2020,2000,g 16.0,4.0
# From MPEC 2021-N06
P/2020 U2 (PANSTARRS),e,6.4195,342.8328,84.7443,3.777832,0.1342271,0.51141346,199.4343,01/21.0/2025,2000,g 18.0,4.0
# From MPEC 2021-W31
C/2020 U3 (Rankin),e,30.1398,282.6083,124.4780,67.57650,0.0017742,0.96621163,2.5634,01/21.0/2025,2000,g 15.0,4.0
# From MPEC 2024-TD8
C/2020 U4 (PANSTARRS),h,04/09.8552/2022,167.0048,120.4020,70.1581,1.000997,5.361289,2000,7.0,4.0
# From MPEC 2024-GJ3
C/2020 U5 (PANSTARRS),e,97.3072,107.3135,75.4611,6777,0.0000018,0.99944561,0.0000,04/28.2254/2022,2000,g  8.0,4.0
# From MPEC 2025-A40
C/2020 V2 (ZTF),h,05/08.4893/2023,131.6130,212.3850,162.4355,1.000944,2.228838,2000,4.9,4.0
# From MPEC 2023-D72
P/2020 V3 (PANSTARRS),e,23.0255,198.2648,249.7135,8.404458,0.0404520,0.25789628,58.1081,01/21.0/2025,2000,g  8.3,4.0
# From MPEC 2024-F34
P/2020 V4 (Rankin),e,14.2400,203.4878,257.1966,9.393007,0.0342371,0.45151765,43.8503,01/21.0/2025,2000,g  9.0,4.0
# From MPEC 2021-BE3
P/2020 W1 (Rankin),e,10.7782,124.3886,265.3618,7.224979,0.0507515,0.26576646,88.6258,01/21.0/2025,2000,g 10.0,4.0
# From MPEC 2025-AE4
C/2020 W5 (Lemmon),h,11/30.6034/2020,88.6281,75.4443,24.5873,1.002201,3.370398,2000,15.0,4.0
# From MPEC 2024-PC5
P/2020 WJ5 (Lemmon),e,22.2882,177.7763,338.0482,6.015069,0.0668103,0.17199167,86.9179,01/21.0/2025,2000,g  8.5,4.0
# From MPEC 2024-F34
P/2020 X1 (ATLAS),e,31.6949,55.9828,323.5267,4.535266,0.1020469,0.36467785,167.9266,01/21.0/2025,2000,g 13.0,4.0
# From MPEC 2024-A43
C/2020 X2 (ATLAS),e,18.1861,105.3618,347.5272,16.52609,0.0146706,0.76823838,22.3866,01/21.0/2025,2000,g 10.6,4.0
# From MPEC 2021-S45
C/2020 X4 (Leonard),e,80.6494,161.9398,140.3095,40.63687,0.0038047,0.87142411,5.8114,01/21.0/2025,2000,g  9.0,4.0
# From MPEC 2024-YC7
C/2020 Y2 (ATLAS),e,101.1958,26.5348,266.4124,1365,0.0000195,0.99769584,0.0000,06/17.9214/2022,2000,g  6.5,4.0
# From MPEC 2021-R75
C/2020 Y3 (ATLAS),e,83.1284,191.3751,341.8560,137.8585,0.0006089,0.98555874,0.0000,12/03.2378/2020,2000,g 13.5,4.0
# From MPEC 2025-A40
C/2021 A1 (Leonard),h,01/03.6271/2022,132.7621,255.9150,225.1472,1.000212,0.615911,2000,8.5,4.0
# From MPEC 2025-A40
C/2021 A2 (NEOWISE),e,107.0424,125.0828,338.7805,228.1033,0.0002861,0.99379819,0.0000,01/21.9869/2021,2000,g 13.5,4.0
# From MPEC 2022-ED3
C/2021 A4 (NEOWISE),e,111.6244,307.0929,204.7419,42.44777,0.0035639,0.97291270,0.0000,03/19.4980/2021,2000,g 16.0,4.0
# From MPEC 2025-AH4
P/2021 A5 (PANSTARRS),e,18.1825,328.6832,62.0621,3.053115,0.1847521,0.14123974,282.0336,01/21.0/2025,2000,g 15.0,4.0
# From MPEC 2024-P23
C/2021 A6 (PANSTARRS),e,75.5707,164.0377,351.6112,10061,0.0000010,0.99921239,0.0000,05/02.8931/2021,2000,g  7.0,4.0
# From MPEC 2022-M88
C/2021 A7 (NEOWISE),e,78.2011,154.4242,355.9875,1808,0.0000128,0.99891338,0.0000,07/15.1376/2021,2000,g 10.0,4.0
# From MPEC 2025-AE4
C/2021 A9 (PANSTARRS),h,12/03.4706/2023,158.0163,314.8452,211.5877,1.000636,7.762143,2000,6.0,4.0
# From MPEC 2021-N06
C/2021 A10 (NEOWISE),e,151.9809,188.8075,82.5956,89.44228,0.0011652,0.98584963,0.0000,03/14.7548/2021,2000,g 19.0,4.0
# From MPEC 2022-L66
C/2021 B2 (PANSTARRS),e,38.0853,120.4532,335.0799,399.3504,0.0001235,0.99370646,0.0000,05/04.8073/2021,2000,g 14.0,4.0
# From MPEC 2021-N06
C/2021 B3 (NEOWISE),e,119.4737,67.2718,293.5742,34.22181,0.0049232,0.93670091,6.9588,01/21.0/2025,2000,g 13.5,4.0
# From MPEC 2023-KD6
C/2021 C1 (Rankin),e,143.0426,186.8475,336.0858,2132,0.0000100,0.99837111,0.0000,12/06.0793/2020,2000,g 11.5,4.0
# From MPEC 2021-U31
P/2021 C2 (PANSTARRS),e,21.9407,66.4561,78.7008,9.542026,0.0334382,0.48819230,47.7091,01/21.0/2025,2000,g 12.0,4.0
# From MPEC 2024-M41
C/2021 C3 (Catalina),e,122.1933,181.8744,356.9834,60.56288,0.0020912,0.96246372,3.0106,01/21.0/2025,2000,g 14.0,4.0
# From MPEC 2022-M88
C/2021 C4 (ATLAS),e,132.8374,194.2448,320.0567,5030,0.0000028,0.99910650,0.0000,01/16.4332/2021,2000,g  9.0,4.0
# From MPEC 2024-N80
C/2021 C5 (PANSTARRS),e,50.8002,323.6731,270.9002,1696,0.0000141,0.99808896,0.0000,02/10.9616/2023,2000,g  9.0,4.0
# From MPEC 2022-YB4
C/2021 C6 (Lemmon),e,164.6070,332.3341,203.8314,2663,0.0000072,0.99876765,0.0000,11/12.0597/2021,2000,g 12.0,4.0
# From MPEC 2022-F14
C/2021 D1 (SWAN),e,31.3694,311.1867,72.4149,102.0475,0.0009561,0.99111532,0.0000,02/27.5572/2021,2000,g 13.0,4.0
# From MPEC 2023-J29
C/2021 D2 (ZTF),h,02/03.7837/2022,83.7776,305.6378,125.0505,1.001481,2.948109,2000,9.0,4.0
# From MPEC 2022-UY9
A/2021 E2,e,167.4917,190.7723,342.2465,203.8794,0.0003386,0.98880524,0.0000,12/09.3571/2020,2000,g 15.0,2.0
# From MPEC 2024-GJ3
C/2021 E3 (ZTF),h,06/11.4435/2022,112.5242,104.4840,228.8126,1.000113,1.777248,2000,8.5,4.0
# From MPEC 2024-N80
A/2021 E4,e,116.3729,171.1502,48.2705,505.0184,0.0000868,0.99073594,0.0000,04/24.8335/2022,2000,g 13.5,22.0
# From MPEC 2022-QD9
C/2021 F1 (Lemmon-PANSTARRS),e,107.3033,203.5163,146.9265,246.8676,0.0002541,0.99595388,0.0000,04/06.7320/2022,2000,g 13.5,4.0
# From MPEC 2025-AH4
C/2021 G1 (Leonard),e,131.5459,270.7036,107.4432,72.36082,0.0016012,0.95264925,2.0500,01/21.0/2025,2000,g 14.0,4.0
# From MPEC 2025-AH4
C/2021 G2 (ATLAS),h,09/09.1480/2024,48.4710,221.0954,343.2695,1.000485,4.982356,2000,5.5,4.0
# From MPEC 2022-X67
C/2021 G3 (PANSTARRS),e,102.8707,147.3584,10.5835,8108,0.0000013,0.99936100,0.0000,10/17.8119/2021,2000,g 10.5,4.0
# From MPEC 2021-Y10
P/2021 HS (PANSTARRS),e,12.1543,262.3580,46.1335,4.193861,0.1147580,0.80939872,145.1427,01/21.0/2025,2000,g 22.0,4.0
# From MPEC 2022-C56
C/2021 J1 (Maury-Attard),e,92.7077,88.4322,147.2290,26.23585,0.0073343,0.93384154,10.4998,01/21.0/2025,2000,g 15.5,4.0
# From MPEC 2023-XP6
C/2021 J2 (PANSTARRS),e,156.2118,23.3182,171.9032,112.9904,0.0008206,0.95839318,0.9994,01/21.0/2025,2000,g 12.0,4.0
# From MPEC 2024-F34
P/2021 J3 (ATLAS),e,14.5183,111.0451,125.6965,8.897777,0.0371349,0.44916574,75.4292,01/21.0/2025,2000,g  7.0,4.0
# From MPEC 2022-O08
C/2021 K1 (ATLAS),e,16.2718,140.9219,184.2437,12.61969,0.0219852,0.80175497,29.8801,01/21.0/2025,2000,g 11.0,4.0
# From MPEC 2022-O01
C/2021 K2 (MASTER),h,09/09.4297/2021,100.8700,282.3340,343.3060,1.000667,5.465851,2000,8.0,4.0
# From MPEC 2022-L66
C/2021 K3 (Catalina),h,02/03.8184/2022,134.7803,114.6015,182.0357,1.004409,5.229436,2000,10.0,4.0
# From MPEC 2021-W31
P/2021 L2 (Leonard),e,21.0642,266.6525,51.4610,4.048000,0.1210162,0.52070282,154.6380,01/21.0/2025,2000,g 17.0,4.0
# From MPEC 2024-H50
C/2021 L3 (Borisov),h,02/14.9582/2022,78.5479,345.0104,91.6451,1.004694,8.459554,2000,6.0,4.0
# From MPEC 2022-TA0
P/2021 N1 (ZTF),e,11.4861,301.1376,21.2345,2.979365,0.1916543,0.67575951,254.0403,01/21.0/2025,2000,g 19.0,4.0
# From MPEC 2024-GJ3
P/2021 N2 (Fuls),e,13.0608,221.7365,177.6121,6.946080,0.0538387,0.45234684,62.6498,01/21.0/2025,2000,g  9.5,4.0
# From MPEC 2022-YB4
C/2021 N3 (PANSTARRS),e,26.7586,337.5172,304.6447,142.0618,0.0005821,0.95977486,0.9416,01/21.0/2025,2000,g  8.5,4.0
# From MPEC 2022-A21
C/2021 O1 (Nishimura),e,27.5828,41.5690,74.3998,3839,0.0000041,0.99979611,0.0000,08/14.6016/2021,2000,g 10.5,4.0
# From MPEC 2022-L66
C/2021 O3 (PANSTARRS),h,04/21.2192/2022,56.8152,188.8600,299.9853,1.000045,0.285305,2000,10.5,4.0
# From MPEC 2024-F34
C/2021 P1 (PANSTARRS),e,51.6265,359.7027,40.5216,2934,0.0000062,0.99850787,0.0000,06/02.6564/2022,2000,g 11.0,4.0
# From MPEC 2024-NE4
C/2021 P2 (PANSTARRS),e,150.0592,32.0896,76.7236,11283,0.0000008,0.99955074,0.0000,01/23.1033/2023,2000,g  9.0,4.0
# From MPEC 2024-GJ3
P/2021 P3 (PANSTARRS),e,27.1600,358.2485,334.0442,4.412441,0.1063373,0.33841604,141.7642,01/21.0/2025,2000,g 14.0,4.0
# From MPEC 2023-A50
